C/2018 N2 (ASASSN),h,11/10.9694/2019,77.5286,25.2448,24.4034,1.000115,3.124798,2000,6.0,4.0
# From MPEC 2021-AJ0
C/2018 U1 (Lemmon),h,11/02.8544/2021,108.2981,75.4798,180.4336,1.001152,4.993394,2000,5.0,4.0
# From MPEC 2021-AJ0
C/2019 C1 (ATLAS),e,36.0251,212.3885,319.1862,750.5390,0.0000479,0.99123136,0.0000,05/05.5729/2020,2000,g 10.0,4.0
# From MPEC 2021-AJ0
C/2019 E3 (ATLAS),h,11/12.5950/2023,84.2924,347.2422,280.6122,1.003909,10.314885,2000,2.5,4.0
# From MPEC 2021-AJ0
C/2019 K7 (Smith),e,103.5420,307.9290,27.3092,89549,0.0000000,0.99995002,0.0000,06/16.9792/2020,2000,g  6.0,4.0
# From MPEC 2021-AJ0
C/2019 L3 (ATLAS),h,01/09.7293/2022,48.3660,290.7859,171.6324,1.000941,3.554198,2000,4.5,4.0
# From MPEC 2021-AJ0
C/2019 N1 (ATLAS),e,82.5456,13.4998,193.0787,60.12363,0.0021142,0.97178369,0.0000,12/01.1971/2020,2000,g  7.5,4.0
# From MPEC 2021-AJ0
A/2019 O2,e,93.2869,48.3171,129.6587,57.35059,0.0022693,0.83116140,358.1898,01/30.0/2021,2000,g  9.5,2.0
# From MPEC 2021-AJ0
A/2019 T1,e,120.8697,6.9538,91.0321,38.25244,0.0041660,0.88807040,0.0655,01/30.0/2021,2000,g 13.0,2.0
# From MPEC 2021-AJ0
C/2019 T3 (ATLAS),e,121.8623,139.5204,112.2730,3593,0.0000046,0.99834503,0.0000,03/02.6674/2021,2000,g  6.8,4.0
# From MPEC 2021-AJ0
C/2019 T4 (ATLAS),e,53.6184,199.9543,351.2163,1034,0.0000296,0.99589751,0.0000,06/09.2699/2022,2000,g  5.0,4.0
# From MPEC 2021-AJ0
C/2019 U6 (Lemmon),e,60.9994,235.6995,329.6595,420.4483,0.0001143,0.99782557,0.0000,06/18.8146/2020,2000,g 10.0,4.0
# From MPEC 2021-AJ0
C/2019 Y4 (ATLAS),e,45.3801,120.5697,177.4218,321.0817,0.0001713,0.99921214,0.0000,05/31.0215/2020,2000,g 11.8,6.0
# From MPEC 2021-AJ0
C/2020 F5 (MASTER),h,03/24.2379/2021,51.7052,350.6324,311.0643,1.003176,4.325958,2000,6.5,3.2
# From MPEC 2021-AJ0
C/2020 F6 (PANSTARRS),e,174.5821,207.8826,344.6086,401.5796,0.0001225,0.99125655,0.0000,04/11.6532/2020,2000,g 14.5,2.8
# From MPEC 2021-AJ0
C/2020 F6 (PANSTARRS),e,174.5821,207.8826,344.6086,401.5796,0.0001225,0.99125655,0.0000,04/11.6532/2020,2000,g 14.5,2.8
# From MPEC 2021-AJ0
A/2020 F7,e,93.9526,321.8866,227.9827,760.8397,0.0000470,0.99299205,0.0000,11/14.0975/2021,2000,g 12.0,2.0
# From MPEC 2021-AJ0
C/2020 H3 (Wierzchos),h,06/03.5550/2020,62.3671,270.5678,29.6086,1.001856,2.304477,2000,13.0,4.0
# From MPEC 2021-AJ0
C/2020 H5 (Robinson),e,70.2170,210.6358,326.1122,2194,0.0000096,0.99573810,0.0000,12/06.1720/2020,2000,g  5.0,4.0
# From MPEC 2021-AJ0
C/2020 H6 (ATLAS),h,10/01.0408/2021,79.9574,213.7057,20.3441,1.000857,4.702917,2000,8.0,3.2
# From MPEC 2021-AJ0
C/2020 K7 (PANSTARRS),e,32.0548,286.0972,358.1976,105.1494,0.0009141,0.93926791,0.4194,01/30.0/2021,2000,g  8.0,4.0
# From MPC 98560
P/2014 L2 (NEOWISE),e,5.1981,149.3486,182.6489,6.303677,0.0622749,0.64815733,148.6408,01/30.0/2021,2000,g 12.0,4.0
# From MPC 90769
P/2014 L3 (Hill),e,6.2775,115.4705,178.6436,8.168136,0.0422201,0.77384682,101.5150,01/30.0/2021,2000,g 16.0,4.0
# From MPC 91614
P/2014 M4 (PANSTARRS),e,3.3357,263.2656,147.9528,5.874431,0.0692238,0.59405149,154.2330,01/30.0/2021,2000,g 15.0,4.0
# From MPC103844
P/2014 MG4 (Spacewatch-PANSTARRS),e,9.3715,311.7339,299.0989,5.011944,0.0878405,0.25969298,244.4185,01/30.0/2021,2000,g  9.5,4.0
# From MPC 98560
P/2014 O3 (PANSTARRS),e,7.8066,87.6431,204.6005,7.563841,0.0473795,0.38615378,117.3165,01/30.0/2021,2000,g 10.5,4.0
# From MPEC 2020-AA5
C/2014 OE4 (PANSTARRS),h,12/12.8933/2016,81.3130,240.4153,65.8841,1.003078,6.249112,2000,11.0,2.0
# From MPC115880
C/2014 R3 (PANSTARRS),e,90.9222,334.0950,113.4452,13083,0.0000007,0.99944401,0.0000,08/08.9155/2016,2000,g  6.5,4.0
# From MPC 91615
P/2014 R5 (Lemmon-PANSTARRS),e,1.0883,126.5575,213.7259,4.056435,0.1206389,0.41359970,291.7148,01/30.0/2021,2000,g 15.0,4.0
# From MPC104790
C/2014 S2 (PANSTARRS),e,64.5204,8.1576,87.2946,169.6130,0.0004462,0.98773725,0.0000,12/09.1032/2015,2000,g 10.0,4.0
# From MPC 91616
P/2014 U4 (PANSTARRS),e,6.4291,11.8906,347.7370,3.506528,0.1501026,0.46496890,357.8231,01/30.0/2021,2000,g 18.0,4.0
# From MPC 95211
P/2014 V1 (PANSTARRS),e,22.5180,166.2013,177.5709,5.481236,0.0768044,0.53421201,168.8616,01/30.0/2021,2000,g 14.0,4.0
# From MPC 93586
P/2014 W1 (PANSTARRS),e,8.8382,246.2456,152.2394,4.461774,0.1045786,0.38868855,249.7483,01/30.0/2021,2000,g 15.5,4.0
# From MPC110493
C/2014 W2 (PANSTARRS),e,82.0680,69.9866,84.9376,561.0057,0.0000742,0.99523331,0.0000,03/07.8941/2016,2000,g  7.5,4.0
# From MPC105542
P/2014 W4 (PANSTARRS),e,15.2727,33.3560,67.8404,6.598798,0.0581443,0.35206804,108.0330,01/30.0/2021,2000,g 11.0,4.0
# From MPC115880
C/2014 W10 (PANSTARRS),e,82.8836,43.1011,43.6495,810.1819,0.0000427,0.99065170,0.0000,03/04.2654/2016,2000,g  8.0,4.0
# From MPC 93587
P/2014 W12 (Gibbs),e,8.5140,299.2901,36.8918,3.519296,0.1492865,0.52418642,339.0565,01/30.0/2021,2000,g 15.0,4.0
# From MPC 94281
P/2014 X1 (Elenin),e,26.0047,61.5073,33.9723,6.209712,0.0636938,0.70854224,141.4747,01/30.0/2021,2000,g 15.0,4.0
# From MPC100579
C/2014 Y1 (PANSTARRS),h,01/15.8810/2016,14.9064,19.5692,182.3203,1.001375,2.254164,2000,9.5,4.0
# From MPC 92275
P/2015 A3 (PANSTARRS),e,172.5298,277.1788,249.2476,7.807981,0.0451748,0.85131341,98.1681,01/30.0/2021,2000,g 20.0,4.0
# From MPC 99270
P/2015 B1 (PANSTARRS),e,18.0314,353.0118,188.8486,9.499325,0.0336639,0.36830735,66.1075,01/30.0/2021,2000,g  8.5,4.0
# From MPC108592
C/2015 B2 (PANSTARRS),e,104.9911,341.8489,284.7193,19584,0.0000004,0.99982788,0.0000,05/05.4211/2016,2000,g  9.5,4.0
# From MPC109141
P/2015 B4 (Lemmon-PANSTARRS),e,1.7599,266.0249,227.4707,8.532052,0.0395479,0.56023607,86.4805,01/30.0/2021,2000,g 11.0,4.0
# From MPC101096
P/2015 C1 (TOTAS-Gibbs),e,13.8918,348.8198,178.3205,6.584827,0.0583294,0.56026135,122.7586,01/30.0/2021,2000,g 12.5,4.0
# From MPC119995
C/2015 D3 (PANSTARRS),h,05/02.4792/2016,128.5488,157.0604,2.9562,1.003619,8.144067,2000,5.5,4.0
# From MPC109141
P/2015 D5 (Kowalski),e,20.5005,74.0599,39.8886,8.970944,0.0366815,0.48881448,91.5738,01/30.0/2021,2000,g  9.0,4.0
# From MPC 96866
P/2015 D6 (Lemmon-PANSTARRS),e,20.2020,46.0224,125.1847,7.145324,0.0516026,0.36191917,105.1401,01/30.0/2021,2000,g 10.5,4.0
# From MPC112390
C/2015 ER61 (PANSTARRS),e,6.3377,235.1533,68.3146,495.6903,0.0000893,0.99789545,0.0000,05/10.4754/2017,2000,g 11.0,2.0
# From MPEC 2018-BF5
C/2015 E61-B (PANSTARRS),e,6.3393,235.1884,68.4038,1407,0.0000187,0.99925753,0.0000,05/10.4530/2017,2000,g 13.5,2.0
# From MPC109142
P/2015 F1 (PANSTARRS),e,2.8025,40.3913,187.4635,3.522834,0.1490616,0.27803752,319.6708,01/30.0/2021,2000,g 12.5,4.0
# From MPC117068
C/2015 H2 (PANSTARRS),h,09/14.2371/2016,33.6538,350.6776,288.1020,1.005663,4.978495,2000,7.5,4.0
# From MPC100280
P/2015 HG16 (PANSTARRS),e,18.7975,58.8202,47.4138,4.748421,0.0952534,0.35129855,229.8390,01/30.0/2021,2000,g 12.5,4.0
# From MPEC 2021-BB8
P/2015 J3 (NEOWISE),e,8.1309,111.3511,129.4539,3.348021,0.1608873,0.55435488,346.7803,01/30.0/2021,2000,g 16.5,4.0
# From MPC 95213
P/2015 K5 (PANSTARRS),e,39.9449,134.1755,106.3380,6.720758,0.0565688,0.55347080,116.8423,01/30.0/2021,2000,g 13.5,4.0
# From MPC107684
P/2015 M2 (PANSTARRS),e,3.9727,86.5834,225.4546,7.229010,0.0507091,0.18105010,99.8686,01/30.0/2021,2000,g  8.5,4.0
# From MPC112390
C/2015 O1 (PANSTARRS),h,02/19.6285/2018,127.2254,299.8516,89.6301,1.001126,3.729214,2000,6.5,4.0
# From MPC 99819
P/2015 P4 (PANSTARRS),e,8.7177,104.7599,280.5691,6.049534,0.0662401,0.58465617,121.6907,01/30.0/2021,2000,g 14.0,4.0
# From MPC102952
P/2015 PD229 (Cameron-ISON),e,2.0263,342.6329,352.4458,7.182355,0.0512040,0.32816537,102.1106,01/30.0/2021,2000,g 11.5,2.0
# From MPC 99819
P/2015 Q1 (Scotti),e,22.3829,202.9139,199.8391,3.473921,0.1522209,0.47826737,302.2146,01/30.0/2021,2000,g 14.0,4.0
# From MPC 96867
P/2015 Q2 (Pimentel),e,146.4947,228.4184,244.4859,7.347806,0.0494843,0.75083246,97.6404,01/30.0/2021,2000,g 15.5,4.0
# From MPC 98562
P/2015 R1 (PANSTARRS),e,22.6790,48.4300,300.4280,5.880402,0.0691184,0.63410948,141.2030,01/30.0/2021,2000,g 14.0,4.0
# From MPC 95734
P/2015 R2 (PANSTARRS),e,15.4798,168.5999,149.7564,4.488371,0.1036504,0.45285687,213.3750,01/30.0/2021,2000,g 14.5,4.0
# From MPC117068
C/2015 T2 (PANSTARRS),e,124.5516,51.0262,30.6556,1967,0.0000113,0.99647359,0.0000,05/18.4042/2017,2000,g  8.0,4.0
# From MPC 96280
P/2015 T3 (PANSTARRS),e,13.0937,120.5019,178.6330,4.326181,0.1095335,0.50818108,359.9227,12/21.0/2014,2000,g 14.0,4.0
# From MPC102953
C/2015 T4 (PANSTARRS),e,87.9966,251.8290,270.0715,79.73480,0.0013843,0.97115844,0.0000,06/16.8271/2016,2000,g 11.0,4.0
# From MPC102097
C/2015 T5 (Sheppard-Tholen),e,11.0503,311.0704,61.8542,28.17251,0.0065912,0.66871563,12.0825,01/30.0/2021,2000,g  7.5,4.0
# From MPC102953
P/2015 TO19 (Lemmon-PANSTARRS),e,6.4995,321.6516,89.1289,4.556057,0.1013492,0.35812523,181.5950,01/30.0/2021,2000,g 14.0,4.0
# From MPC110080
P/2015 TP200 (LINEAR),e,8.7771,6.9974,82.6133,7.275382,0.0502250,0.53496756,78.1457,01/30.0/2021,2000,g 11.0,4.0
# From MPC101097
C/2015 TQ209 (LINEAR),e,11.3034,223.3639,282.1529,579.6810,0.0000706,0.99755692,0.0000,08/25.3415/2016,2000,g 10.5,4.0
# From MPC115881
C/2015 V1 (PANSTARRS),e,139.2239,197.1841,179.6201,2349,0.0000087,0.99818261,0.0000,12/16.8535/2017,2000,g  6.5,4.0
# From MPC112390
C/2015 V2 (Johnson),h,06/11.8843/2017,49.8546,69.8999,165.0006,1.001865,1.644291,2000,5.0,4.0
# From MPC104791
C/2015 V4 (PANSTARRS),e,60.7859,179.9350,306.9748,18.47344,0.0124132,0.70441560,20.0568,01/30.0/2021,2000,g  8.5,4.0
# From MPC115881
C/2015 VL62 (Lemmon-Yeung-PANSTARRS),h,08/27.8797/2017,165.8168,95.1050,128.7988,1.001220,2.718049,2000,8.0,4.0
# From MPC102098
C/2015 WZ (PANSTARRS),e,134.6268,40.1903,66.7492,147.1646,0.0005521,0.99061552,0.0000,04/13.7341/2016,2000,g 15.0,4.0
# From MPC109142
C/2015 W1 (Gibbs),e,87.3619,114.3163,48.1679,2785,0.0000067,0.99919437,0.0000,05/13.7058/2016,2000,g 13.0,4.0
# From MPC101098
P/2015 W2 (Catalina),e,11.6070,294.2516,117.4982,7.295992,0.0500124,0.63389123,97.4398,01/30.0/2021,2000,g 13.0,4.0
# From MPC101098
